SL-16 R/B               
1 25400U 98043G   26016.74026842  .00000019  00000+0  26961-4 0  9990
2 25400  98.8171 329.7629 0010130 159.4287 200.7302 14.26034788431584
SL-16 R/B               
1 25407U 98045B   26016.94029333  .00000217  00000+0  13350-3 0  9996
2 25407  71.0117 290.4019 0005297 111.5292 248.6397 14.16181059419779
ISS (ZARYA)             
1 25544U 98067A   26016.88563267  .00011056  00000+0  20598-3 0  9999
2 25544  51.6335 328.4813 0007771  26.7144 333.4244 15.49337726548300
CZ-4B R/B               
1 25732U 99025C   26016.90451493  .00000062  00000+0  50382-4 0  9993
2 25732  98.6721  62.3897 0037901 132.8937  39.4988 14.18252650380828
OKEAN-O                 
1 25860U 99039A   26016.87383085  .00000641  00000+0  91168-4 0  9997
2 25860  97.9549  77.2636 0001738 106.3111 253.8292 14.80230372426721
SL-16 R/B               
1 25861U 99039B   26016.90281044  .00000463  00000+0  65621-4 0  9991
2 25861  98.0073  76.0478 0016053  67.7741 292.5173 14.81643609429196
DELTA 2 R/B             
1 25876U 99041E   26016.76175565  .00002216  00000+0  39421-3 0  9990
2 25876  51.7618 148.6300 0503513 195.0198 163.5297 14.11560403355696
HELIOS 1B               
1 25977U 99064A   26016.98774983  .00001477  00000+0  16959-3 0  9999
2 25977  98.1747 277.7007 0000710 134.3205 225.8069 14.87445594677579
TERRA                   
1 25994U 99068A   26016.93521869  .00000382  00000+0  87000-4 0  9990
2 25994  97.9697  72.3194 0002229  18.8874  25.7177 14.60946247387522
SL-16 R/B               
1 26070U 00006B   26016.94221477 -.00000250  00000+0 -10270-3 0  9993
2 26070  71.0002 206.6411 0018914 261.3992  98.4988 14.15812916341239
TITAN 4B R/B            
1 26474U 00047B   26016.94098114  .00003159  00000+0  20432-3 0  9996
2 26474  67.9874 185.9710 0036915 100.8282 259.7026 15.09062338385107
ENVISAT                 
1 27386U 02009A   26016.87038848  .00000064  00000+0  34561-4 0  9990
2 27386  98.3646 331.7295 0001156  91.7185 277.4225 14.39013718251721
