CCSDS_OMM_VERS = 2.0
CREATION_DATE  = 
ORIGINATOR     = 

OBJECT_NAME    = SL-16 R/B
OBJECT_ID      = 1998-043G
CENTER_NAME    = EARTH
REF_FRAME      = TEME
TIME_SYSTEM    = UTC
MEAN_ELEMENT_THEORY = SGP/SGP4

EPOCH          = 2026-01-16T17:45:59.191488
MEAN_MOTION    = 14.26034788
ECCENTRICITY   = .00101302
INCLINATION    = 98.8171
RA_OF_ASC_NODE = 329.7629
ARG_OF_PERICENTER = 159.4287
MEAN_ANOMALY   = 200.7302

EPHEMERIS_TYPE = 0
CLASSIFICATION_TYPE = U
NORAD_CAT_ID   = 25400
ELEMENT_SET_NO = 999
REV_AT_EPOCH   = 43158
BSTAR          = .26961463E-4
MEAN_MOTION_DOT = .19E-6
MEAN_MOTION_DDOT = 0

CCSDS_OMM_VERS = 2.0
CREATION_DATE  = 
ORIGINATOR     = 

OBJECT_NAME    = SL-16 R/B
OBJECT_ID      = 1998-045B
CENTER_NAME    = EARTH
REF_FRAME      = TEME
TIME_SYSTEM    = UTC
MEAN_ELEMENT_THEORY = SGP/SGP4

EPOCH          = 2026-01-16T22:34:01.343712
MEAN_MOTION    = 14.16181059
ECCENTRICITY   = .00052975
INCLINATION    = 71.0117
RA_OF_ASC_NODE = 290.4019
ARG_OF_PERICENTER = 111.5292
MEAN_ANOMALY   = 248.6397

EPHEMERIS_TYPE = 0
CLASSIFICATION_TYPE = U
NORAD_CAT_ID   = 25407
ELEMENT_SET_NO = 999
REV_AT_EPOCH   = 41977
BSTAR          = .13350319E-3
MEAN_MOTION_DOT = .217E-5
MEAN_MOTION_DDOT = 0

CCSDS_OMM_VERS = 2.0
CREATION_DATE  = 
ORIGINATOR     = 

OBJECT_NAME    = ISS (ZARYA)
OBJECT_ID      = 1998-067A
CENTER_NAME    = EARTH
REF_FRAME      = TEME
TIME_SYSTEM    = UTC
MEAN_ELEMENT_THEORY = SGP/SGP4

EPOCH          = 2026-01-16T21:15:18.662688
MEAN_MOTION    = 15.49337726
ECCENTRICITY   = .00077719
INCLINATION    = 51.6335
RA_OF_ASC_NODE = 328.4813
ARG_OF_PERICENTER = 26.7144
MEAN_ANOMALY   = 333.4244

EPHEMERIS_TYPE = 0
CLASSIFICATION_TYPE = U
NORAD_CAT_ID   = 25544
ELEMENT_SET_NO = 999
REV_AT_EPOCH   = 54830
BSTAR          = .20598128E-3
MEAN_MOTION_DOT = .11056E-3
MEAN_MOTION_DDOT = 0

CCSDS_OMM_VERS = 2.0
CREATION_DATE  = 
ORIGINATOR     = 

OBJECT_NAME    = CZ-4B R/B
OBJECT_ID      = 1999-025C
CENTER_NAME    = EARTH
REF_FRAME      = TEME
TIME_SYSTEM    = UTC
MEAN_ELEMENT_THEORY = SGP/SGP4

EPOCH          = 2026-01-16T21:42:30.089952
MEAN_MOTION    = 14.18252650
ECCENTRICITY   = .00379012
INCLINATION    = 98.6721
RA_OF_ASC_NODE = 62.3897
ARG_OF_PERICENTER = 132.8937
MEAN_ANOMALY   = 39.4988

EPHEMERIS_TYPE = 0
CLASSIFICATION_TYPE = U
NORAD_CAT_ID   = 25732
ELEMENT_SET_NO = 999
REV_AT_EPOCH   = 38082
BSTAR          = .50382084E-4
MEAN_MOTION_DOT = .62E-6
MEAN_MOTION_DDOT = 0

CCSDS_OMM_VERS = 2.0
CREATION_DATE  = 
ORIGINATOR     = 

OBJECT_NAME    = OKEAN-O
OBJECT_ID      = 1999-039A
CENTER_NAME    = EARTH
REF_FRAME      = TEME
TIME_SYSTEM    = UTC
MEAN_ELEMENT_THEORY = SGP/SGP4

EPOCH          = 2026-01-16T20:58:18.985440
MEAN_MOTION    = 14.80230372
ECCENTRICITY   = .00017381
INCLINATION    = 97.9549
RA_OF_ASC_NODE = 77.2636
ARG_OF_PERICENTER = 106.3111
MEAN_ANOMALY   = 253.8292

EPHEMERIS_TYPE = 0
CLASSIFICATION_TYPE = U
NORAD_CAT_ID   = 25860
ELEMENT_SET_NO = 999
REV_AT_EPOCH   = 42672
BSTAR          = .91168177E-4
MEAN_MOTION_DOT = .641E-5
MEAN_MOTION_DDOT = 0

CCSDS_OMM_VERS = 2.0
CREATION_DATE  = 
ORIGINATOR     = 

OBJECT_NAME    = SL-16 R/B
OBJECT_ID      = 1999-039B
CENTER_NAME    = EARTH
REF_FRAME      = TEME
TIME_SYSTEM    = UTC
MEAN_ELEMENT_THEORY = SGP/SGP4

EPOCH          = 2026-01-16T21:40:02.822016
MEAN_MOTION    = 14.81643609
ECCENTRICITY   = .00160537
INCLINATION    = 98.0073
RA_OF_ASC_NODE = 76.0478
ARG_OF_PERICENTER = 67.7741
MEAN_ANOMALY   = 292.5173

EPHEMERIS_TYPE = 0
CLASSIFICATION_TYPE = U
NORAD_CAT_ID   = 25861
ELEMENT_SET_NO = 999
REV_AT_EPOCH   = 42919
BSTAR          = .65620889E-4
MEAN_MOTION_DOT = .463E-5
MEAN_MOTION_DDOT = 0

CCSDS_OMM_VERS = 2.0
CREATION_DATE  = 
ORIGINATOR     = 

OBJECT_NAME    = DELTA 2 R/B
OBJECT_ID      = 1999-041E
CENTER_NAME    = EARTH
REF_FRAME      = TEME
TIME_SYSTEM    = UTC
MEAN_ELEMENT_THEORY = SGP/SGP4

EPOCH          = 2026-01-16T18:16:55.688160
MEAN_MOTION    = 14.11560403
ECCENTRICITY   = .05035138
INCLINATION    = 51.7618
RA_OF_ASC_NODE = 148.6300
ARG_OF_PERICENTER = 195.0198
MEAN_ANOMALY   = 163.5297

EPHEMERIS_TYPE = 0
CLASSIFICATION_TYPE = U
NORAD_CAT_ID   = 25876
ELEMENT_SET_NO = 999
REV_AT_EPOCH   = 35569
BSTAR          = .39421188E-3
MEAN_MOTION_DOT = .2216E-4
MEAN_MOTION_DDOT = 0

CCSDS_OMM_VERS = 2.0
CREATION_DATE  = 
ORIGINATOR     = 

OBJECT_NAME    = HELIOS 1B
OBJECT_ID      = 1999-064A
CENTER_NAME    = EARTH
REF_FRAME      = TEME
TIME_SYSTEM    = UTC
MEAN_ELEMENT_THEORY = SGP/SGP4

EPOCH          = 2026-01-16T23:42:21.585312
MEAN_MOTION    = 14.87445594
ECCENTRICITY   = .000071
INCLINATION    = 98.1747
RA_OF_ASC_NODE = 277.7007
ARG_OF_PERICENTER = 134.3205
MEAN_ANOMALY   = 225.8069

EPHEMERIS_TYPE = 0
CLASSIFICATION_TYPE = U
NORAD_CAT_ID   = 25977
ELEMENT_SET_NO = 999
REV_AT_EPOCH   = 67757
BSTAR          = .16958563E-3
MEAN_MOTION_DOT = .1477E-4
MEAN_MOTION_DDOT = 0

CCSDS_OMM_VERS = 2.0
CREATION_DATE  = 
ORIGINATOR     = 

OBJECT_NAME    = TERRA
OBJECT_ID      = 1999-068A
CENTER_NAME    = EARTH
REF_FRAME      = TEME
TIME_SYSTEM    = UTC
MEAN_ELEMENT_THEORY = SGP/SGP4

EPOCH          = 2026-01-16T22:26:42.894816
MEAN_MOTION    = 14.60946247
ECCENTRICITY   = .00022298
INCLINATION    = 97.9697
RA_OF_ASC_NODE = 72.3194
ARG_OF_PERICENTER = 18.8874
MEAN_ANOMALY   = 25.7177

EPHEMERIS_TYPE = 0
CLASSIFICATION_TYPE = U
NORAD_CAT_ID   = 25994
ELEMENT_SET_NO = 999
REV_AT_EPOCH   = 38752
BSTAR          = .8699978E-4
MEAN_MOTION_DOT = .382E-5
MEAN_MOTION_DDOT = 0

CCSDS_OMM_VERS = 2.0
CREATION_DATE  = 
ORIGINATOR     = 

OBJECT_NAME    = SL-16 R/B
OBJECT_ID      = 2000-006B
CENTER_NAME    = EARTH
REF_FRAME      = TEME
TIME_SYSTEM    = UTC
MEAN_ELEMENT_THEORY = SGP/SGP4

EPOCH          = 2026-01-16T22:36:47.356128
MEAN_MOTION    = 14.15812916
ECCENTRICITY   = .00189148
INCLINATION    = 71.0002
RA_OF_ASC_NODE = 206.6411
ARG_OF_PERICENTER = 261.3992
MEAN_ANOMALY   = 98.4988

EPHEMERIS_TYPE = 0
CLASSIFICATION_TYPE = U
NORAD_CAT_ID   = 26070
ELEMENT_SET_NO = 999
REV_AT_EPOCH   = 34123
BSTAR          = -.10269874E-3
MEAN_MOTION_DOT = -.25E-5
MEAN_MOTION_DDOT = 0

CCSDS_OMM_VERS = 2.0
CREATION_DATE  = 
ORIGINATOR     = 

OBJECT_NAME    = TITAN 4B R/B
OBJECT_ID      = 2000-047B
CENTER_NAME    = EARTH
REF_FRAME      = TEME
TIME_SYSTEM    = UTC
MEAN_ELEMENT_THEORY = SGP/SGP4

EPOCH          = 2026-01-16T22:35:00.770496
MEAN_MOTION    = 15.09062338
ECCENTRICITY   = .00369153
INCLINATION    = 67.9874
RA_OF_ASC_NODE = 185.9710
ARG_OF_PERICENTER = 100.8282
MEAN_ANOMALY   = 259.7026

EPHEMERIS_TYPE = 0
CLASSIFICATION_TYPE = U
NORAD_CAT_ID   = 26474
ELEMENT_SET_NO = 999
REV_AT_EPOCH   = 38510
BSTAR          = .20432082E-3
MEAN_MOTION_DOT = .3159E-4
MEAN_MOTION_DDOT = 0

CCSDS_OMM_VERS = 2.0
CREATION_DATE  = 
ORIGINATOR     = 

OBJECT_NAME    = ENVISAT
OBJECT_ID      = 2002-009A
CENTER_NAME    = EARTH
REF_FRAME      = TEME
TIME_SYSTEM    = UTC
MEAN_ELEMENT_THEORY = SGP/SGP4

EPOCH          = 2026-01-16T20:53:21.564672
MEAN_MOTION    = 14.39013718
ECCENTRICITY   = .00011563
INCLINATION    = 98.3646
RA_OF_ASC_NODE = 331.7295
ARG_OF_PERICENTER = 91.7185
MEAN_ANOMALY   = 277.4225

EPHEMERIS_TYPE = 0
CLASSIFICATION_TYPE = U
NORAD_CAT_ID   = 27386
ELEMENT_SET_NO = 999
REV_AT_EPOCH   = 25172
BSTAR          = .34560936E-4
MEAN_MOTION_DOT = .64E-6
MEAN_MOTION_DDOT = 0

